H1 CPF 01  gfz 2021 04 22 12  6122 tandemx   
H2 1003001  6202 36605    2021 04 22 12 59 42 2021 04 27 00 00 42   120 1 1  0 0 0
H9
10 0 59327  59742.000000  0   -5548710.973  -1649597.252  -3743066.649
10 0 59327  59862.000000  0   -5084747.273  -1317341.911  -4465122.167
10 0 59327  59982.000000  0   -4526422.744   -971122.422  -5108974.998
10 0 59327  60102.000000  0   -3883354.803   -618545.772  -5663445.304
10 0 59327  60222.000000  0   -3166737.404   -267133.128  -6118932.996
10 0 59327  60342.000000  0   -2389139.010     75836.013  -6467572.261
10 0 59327  60462.000000  0   -1564278.698    403469.417  -6703355.683
10 0 59327  60582.000000  0    -706784.177    709395.015  -6822226.799
10 0 59327  60702.000000  0     168063.174    987880.963  -6822141.610
10 0 59327  60822.000000  0    1044593.076   1233939.328  -6703099.544
10 0 59327  60942.000000  0    1907020.380   1443412.977  -6467146.284
10 0 59327  61062.000000  0    2739723.932   1613045.462  -6118342.497
10 0 59327  61182.000000  0    3527525.347   1740531.208  -5662700.602
10 0 59327  61302.000000  0    4255962.423   1824545.618  -5108090.806
10 0 59327  61422.000000  0    4911556.183   1864755.679  -4464117.563
10 0 59327  61542.000000  0    5482065.878   1861809.917  -3741963.651
10 0 59327  61662.000000  0    5956725.032   1817307.221  -2954204.918
10 0 59327  61782.000000  0    6326455.257   1733745.419  -2114598.556
10 0 59327  61902.000000  0    6584052.294   1614450.703  -1237845.098
10 0 59327  62022.000000  0    6724337.333   1463488.191   -339329.340
10 0 59327  62142.000000  0    6744269.882   1285555.623    565155.249
10 0 59327  62262.000000  0    6643017.040   1085863.895   1459690.653
10 0 59327  62382.000000  0    6421981.967    870006.590   2328522.637
10 0 59327  62502.000000  0    6084784.768    643820.910   3156348.227
10 0 59327  62622.000000  0    5637199.103    413245.053   3928592.467
10 0 59327  62742.000000  0    5087044.685    184175.213   4631670.447
10 0 59327  62862.000000  0    4444042.017    -37673.002   5253227.562
10 0 59327  62982.000000  0    3719630.366   -246898.141   5782357.223
10 0 59327  63102.000000  0    2926753.813   -438535.569   6209787.708
10 0 59327  63222.000000  0    2079623.036   -608167.354   6528038.959
10 0 59327  63342.000000  0    1193456.163   -752018.312   6731548.162
10 0 59327  63462.000000  0     284201.536   -867036.262   6816762.250
10 0 59327  63582.000000  0    -631750.712   -950954.324   6782194.816
10 0 59327  63702.000000  0   -1537863.266  -1002335.185   6628449.529
10 0 59327  63822.000000  0   -2417748.802  -1020595.664   6358209.599
10 0 59327  63942.000000  0   -3255464.614  -1006011.430   5976194.153
10 0 59327  64062.000000  0   -4035803.058   -959702.174   5489082.832
10 0 59327  64182.000000  0   -4744572.752   -883598.377   4905405.633
10 0 59327  64302.000000  0   -5368863.954   -780388.979   4235398.700
10 0 59327  64422.000000  0   -5897292.035   -653451.016   3490828.106
10 0 59327  64542.000000  0   -6320213.584   -506762.700   2684785.264
10 0 59327  64662.000000  0   -6629912.838   -344801.757   1831457.485
10 0 59327  64782.000000  0   -6820752.756   -172431.091    945874.118
10 0 59327  64902.000000  0   -6889284.252      5224.527     43634.583
10 0 59327  65022.000000  0   -6834311.602    182908.520   -859375.111
10 0 59327  65142.000000  0   -6656911.753    355365.945  -1747271.443
10 0 59327  65262.000000  0   -6360407.881    517476.050  -2604459.648
10 0 59327  65382.000000  0   -5950300.793    664381.287  -3415914.270
10 0 59327  65502.000000  0   -5434154.413    791609.681  -4167447.419
10 0 59327  65622.000000  0   -4821442.730    895187.137  -4845955.609
10 0 59327  65742.000000  0   -4123362.838    971736.846  -5439643.520
10 0 59327  65862.000000  0   -3352619.356   1018563.979  -5938220.446
10 0 59327  65982.000000  0   -2523185.239   1033723.472  -6333067.899
10 0 59327  66102.000000  0   -1650044.983   1016070.652  -6617376.737
10 0 59327  66222.000000  0    -748923.314    965294.718  -6786253.521
10 0 59327  66342.000000  0     163993.975    881933.090  -6836794.155
10 0 59327  66462.000000  0    1072342.550    767367.551  -6768128.564
10 0 59327  66582.000000  0    1959866.241    623801.675  -6581436.642
10 0 59327  66702.000000  0    2810702.168    454220.001  -6279929.805
10 0 59327  66822.000000  0    3609659.540    262330.014  -5868801.567
10 0 59327  66942.000000  0    4342487.926     52486.335  -5355146.388
10 0 59327  67062.000000  0    4996131.896   -170400.596  -4747849.074
10 0 59327  67182.000000  0    5558969.862   -400970.308  -4057442.784
10 0 59327  67302.000000  0    6021029.143   -633531.055  -3295935.756
10 0 59327  67422.000000  0    6374173.640   -862189.211  -2476610.425
10 0 59327  67542.000000  0    6612260.128  -1080986.748  -1613796.144
10 0 59327  67662.000000  0    6731257.637  -1284042.848   -722618.573
10 0 59327  67782.000000  0    6729326.116  -1465696.688    181268.590
10 0 59327  67902.000000  0    6606852.820  -1620647.827   1081964.829
10 0 59327  68022.000000  0    6366442.935  -1744090.566   1963611.077
10 0 59327  68142.000000  0    6012866.129  -1831838.838   2810678.114
10 0 59327  68262.000000  0    5552958.415  -1880437.092   3608249.036
10 0 59327  68382.000000  0    4995482.841  -1887255.984   4342287.816
10 0 59327  68502.000000  0    4350953.747  -1850569.512   4999889.018
10 0 59327  68622.000000  0    3631430.259  -1769611.680   5569505.271
10 0 59327  68742.000000  0    2850281.367  -1644612.781   6041148.876
10 0 59327  68862.000000  0    2021929.451  -1476813.740   6406561.466
10 0 59327  68982.000000  0    1161579.063  -1268459.241   6659352.997
10 0 59327  69102.000000  0     284934.083  -1022768.805   6795107.936
10 0 59327  69222.000000  0    -592090.273   -743886.382   6811456.772
10 0 59327  69342.000000  0   -1453655.399   -436810.274   6708113.788
10 0 59327  69462.000000  0   -2284283.927   -107303.801   6486881.663
10 0 59327  69582.000000  0   -3069136.674    238212.155   6151622.541
10 0 59327  69702.000000  0   -3794278.742    592782.839   5708195.798
10 0 59327  69822.000000  0   -4446930.894    949057.344   5164361.767
10 0 59327  69942.000000  0   -5015700.793   1299438.567   4529651.860
10 0 59327  70062.000000  0   -5490790.041   1636242.898   3815206.249
10 0 59327  70182.000000  0   -5864171.250   1951865.622   3033580.903
10 0 59327  70302.000000  0   -6129732.282   2238948.785   2198527.917
10 0 59327  70422.000000  0   -6283384.696   2490547.668   1324751.749
10 0 59327  70542.000000  0   -6323132.590   2700292.074    427644.423
10 0 59327  70662.000000  0   -6249098.233   2862537.283   -476993.729
10 0 59327  70782.000000  0   -6063505.285   2972501.087  -1373241.247
10 0 59327  70902.000000  0   -5770619.481   3026383.432  -2245344.515
10 0 59327  71022.000000  0   -5376648.049   3021466.055  -3078003.148
10 0 59327  71142.000000  0   -4889600.551   2956188.368  -3856643.207
10 0 59327  71262.000000  0   -4319116.559   2830199.276  -4567673.242
10 0 59327  71382.000000  0   -3676264.886   2644383.549  -5198718.134
10 0 59327  71502.000000  0   -2973320.140   2400862.930  -5738826.570
10 0 59327  71622.000000  0   -2223523.510   2102973.380  -6178651.157
10 0 59327  71742.000000  0   -1440829.625   1755217.997  -6510600.044
10 0 59327  71862.000000  0    -639646.718   1363196.954  -6728955.268
10 0 59327  71982.000000  0     165424.708    933516.700  -6829960.925
10 0 59327  72102.000000  0     959851.055    473680.186  -6811880.484
10 0 59327  72222.000000  0    1729422.336     -8041.365  -6675025.413
10 0 59327  72342.000000  0    2460500.925   -502753.943  -6421749.198
10 0 59327  72462.000000  0    3140258.113  -1001100.302  -6056411.752
10 0 59327  72582.000000  0    3756896.925  -1493432.011  -5585311.554
10 0 59327  72702.000000  0    4299857.088  -1969991.543  -5016588.501
10 0 59327  72822.000000  0    4760000.596  -2421103.657  -4360094.770
10 0 59327  72942.000000  0    5129771.881  -2837370.375  -3627234.592
10 0 59327  73062.000000  0    5403330.630  -3209866.017  -2830775.356
10 0 59327  73182.000000  0    5576654.104  -3530328.283  -1984630.679
10 0 59327  73302.000000  0    5647604.447  -3791340.554  -1103619.158
10 0 59327  73422.000000  0    5615959.777  -3986501.611   -203203.376
10 0 59327  73542.000000  0    5483407.223  -4110577.352    700786.552
10 0 59327  73662.000000  0    5253497.079  -4159631.415   1592439.187
10 0 59327  73782.000000  0    4931558.379  -4131129.467   2456051.533
10 0 59327  73902.000000  0    4524578.373  -4024013.575   3276413.975
10 0 59327  74022.000000  0    4041050.481  -3838747.059   4039084.525
10 0 59327  74142.000000  0    3490794.005  -3577328.912   4730648.285
10 0 59327  74262.000000  0    2884748.315  -3243275.777   5338955.604
10 0 59327  74382.000000  0    2234750.214  -2841572.960   5853334.012
10 0 59327  74502.000000  0    1553297.450  -2378596.284   6264772.150
10 0 59327  74622.000000  0     853304.440  -1862007.121   6566071.544
10 0 59327  74742.000000  0     147855.384  -1300622.534   6751966.547
10 0 59327  74862.000000  0    -550040.715   -704262.575   6819210.832
10 0 59327  74982.000000  0   -1227689.044    -83577.462   6766629.915
10 0 59327  75102.000000  0   -1872938.937    550142.281   6595140.394
10 0 59327  75222.000000  0   -2474401.101   1185170.613   6307735.053
10 0 59327  75342.000000  0   -3021649.078   1809561.983   5909434.009
10 0 59327  75462.000000  0   -3505401.838   2411375.602   5407202.944
10 0 59327  75582.000000  0   -3917685.410   2978905.161   4809837.885
10 0 59327  75702.000000  0   -4251969.309   3500908.863   4127816.369
10 0 59327  75822.000000  0   -4503275.844   3966835.353   3373118.040
10 0 59327  75942.000000  0   -4668259.132   4367040.931   2559015.809
10 0 59327  76062.000000  0   -4745250.814   4692993.708   1699841.306
10 0 59327  76182.000000  0   -4734271.731   4937458.268    810727.881
99
